[{"OBJECT_NAME":"STARLINK-2387","OBJECT_ID":"2021-018V","EPOCH":"2026-03-09T17:21:33.146784","MEAN_MOTION":15.30192239,"ECCENTRICITY":0.00011935,"INCLINATION":53.1618,"RA_OF_ASC_NODE":242.2846,"ARG_OF_PERICENTER":76.9865,"MEAN_ANOMALY":283.1269,"EPHEMERIS_TYPE":0,"CLASSIFICATION_TYPE":"U","NORAD_CAT_ID":47806,"ELEMENT_SET_NO":999,"REV_AT_EPOCH":27679,"BSTAR":0.00033907831,"MEAN_MOTION_DOT":9.694e-5,"MEAN_MOTION_DDOT":0},{"OBJECT_NAME":"CZ-4B R\/B","OBJECT_ID":"2010-051C","EPOCH":"2026-03-09T16:48:37.977120","MEAN_MOTION":15.17426017,"ECCENTRICITY":0.00758037,"INCLINATION":97.7974,"RA_OF_ASC_NODE":110.8647,"ARG_OF_PERICENTER":95.044,"MEAN_ANOMALY":265.9451,"EPHEMERIS_TYPE":0,"CLASSIFICATION_TYPE":"U","NORAD_CAT_ID":37181,"ELEMENT_SET_NO":999,"REV_AT_EPOCH":84355,"BSTAR":0.00029718512,"MEAN_MOTION_DOT":6.328e-5,"MEAN_MOTION_DDOT":0}]
